[{"OBJECT_NAME":"TIANQI-29","OBJECT_ID":"2024-170A","EPOCH":"2026-03-09T20:46:41.243232","MEAN_MOTION":13.99108812,"ECCENTRICITY":0.00055066,"INCLINATION":44.8559,"RA_OF_ASC_NODE":219.5799,"ARG_OF_PERICENTER":342.0099,"MEAN_ANOMALY":18.0536,"EPHEMERIS_TYPE":0,"CLASSIFICATION_TYPE":"U","NORAD_CAT_ID":61195,"ELEMENT_SET_NO":999,"REV_AT_EPOCH":7495,"BSTAR":0.00015072092,"MEAN_MOTION_DOT":9.2e-7,"MEAN_MOTION_DDOT":0},{"OBJECT_NAME":"SL-14 DEB","OBJECT_ID":"1986-101C","EPOCH":"2026-03-09T17:53:09.849696","MEAN_MOTION":13.98393768,"ECCENTRICITY":0.00272688,"INCLINATION":82.616,"RA_OF_ASC_NODE":329.2288,"ARG_OF_PERICENTER":130.9884,"MEAN_ANOMALY":284.2618,"EPHEMERIS_TYPE":0,"CLASSIFICATION_TYPE":"U","NORAD_CAT_ID":17268,"ELEMENT_SET_NO":999,"REV_AT_EPOCH":99292,"BSTAR":0.00044957562,"MEAN_MOTION_DOT":6.6e-6,"MEAN_MOTION_DDOT":0}]
